COSMOS 2576             
1 59773U 24092A   26068.82603826  .00015211  00000+0  56283-3 0  9991
2 59773  97.4253 186.0053 0005946 159.7731 200.3745 15.27760963101271
STARLINK-32665          
1 62203U 24229M   26068.57456917  .00026498  00000+0  96895-3 0  9996
2 62203  42.9995 271.3734 0001599 246.8294 113.2389 15.27580721 70540
